{"type":"FeatureCollection","features":[{"type":"Feature","properties":{"name":"Hafizabad"},"geometry":{"type":"MultiPolygon","coordinates":[[[[73.678763,32.344806],[73.678321,32.342067],[73.678519,32.342128],[73.680037,32.335696],[73.680778,32.332554],[73.681893,32.32783],[73.685992,32.310456],[73.686667,32.305632],[73.687497,32.299707],[73.68854,32.292256],[73.693332,32.286158],[73.700552,32.276969],[73.702291,32.273324],[73.702292,32.273323],[73.704121,32.26949],[73.708035,32.261291],[73.708196,32.260953],[73.713656,32.244209],[73.721349,32.236836],[73.722392,32.235837],[73.726646,32.229946],[73.727541,32.228707],[73.731856,32.222733],[73.731232,32.216183],[73.7304,32.207445],[73.733161,32.206233],[73.745323,32.200893],[73.752603,32.19507],[73.753446,32.191696],[73.754787,32.186334],[73.755151,32.176506],[73.762173,32.175409],[73.763211,32.175247],[73.766799,32.174686],[73.776627,32.167042],[73.780267,32.159398],[73.784551,32.152115],[73.787547,32.147022],[73.79122,32.142701],[73.793735,32.139742],[73.80087,32.139346],[73.803804,32.139183],[73.806839,32.139014],[73.806883,32.138136],[73.806956,32.138136],[73.807232,32.132625],[73.807276,32.131749],[73.802908,32.118645],[73.800341,32.113084],[73.800302,32.112999],[73.79978,32.111869],[73.79854,32.109181],[73.800342,32.100826],[73.80035,32.100789],[73.802363,32.091454],[73.802471,32.090955],[73.802539,32.090642],[73.802544,32.090618],[73.802471,32.090391],[73.801305,32.086756],[73.800459,32.084118],[73.798344,32.077525],[73.796356,32.071326],[73.801507,32.067966],[73.80144,32.067948],[73.813021,32.060395],[73.813044,32.060442],[73.8131,32.060406],[73.81777,32.058023],[73.826538,32.053549],[73.828824,32.052383],[73.828821,32.05237],[73.830907,32.051306],[73.824405,32.04384],[73.82108,32.040022],[73.821586,32.038631],[73.821623,32.038604],[73.822564,32.036018],[73.824626,32.016073],[73.82474,32.014973],[73.824747,32.014907],[73.817832,32.003987],[73.811697,31.994784],[73.810552,31.993067],[73.810549,31.993048],[73.810244,31.990526],[73.810177,31.989973],[73.809096,31.981055],[73.809096,31.980877],[73.809023,31.980836],[73.794462,31.972668],[73.791237,31.971168],[73.778811,31.965388],[73.77881,31.965388],[73.778051,31.964861],[73.765706,31.956288],[73.75879,31.946825],[73.756742,31.945104],[73.749691,31.939181],[73.74968,31.93916],[73.746415,31.932629],[73.743139,31.925349],[73.743136,31.925347],[73.74024,31.923303],[73.736951,31.920981],[73.73695,31.920981],[73.734103,31.921337],[73.731231,31.921696],[73.725576,31.922403],[73.725302,31.922437],[73.720207,31.916613],[73.720183,31.916494],[73.720099,31.916398],[73.718675,31.909274],[73.713451,31.905268],[73.713463,31.905261],[73.71294,31.904861],[73.71294,31.90486],[73.712925,31.904865],[73.692179,31.888949],[73.689604,31.889031],[73.673832,31.889535],[73.671429,31.889611],[73.671277,31.889616],[73.657964,31.890041],[73.65015,31.887892],[73.644324,31.88629],[73.641648,31.885554],[73.628844,31.882033],[73.623472,31.878567],[73.606276,31.867473],[73.597057,31.869716],[73.592808,31.870749],[73.581161,31.879849],[73.568785,31.891861],[73.559321,31.889313],[73.558957,31.879121],[73.560644,31.874228],[73.562597,31.868565],[73.562597,31.859085],[73.562597,31.858009],[73.560948,31.84835],[73.560049,31.843086],[73.559401,31.842506],[73.546217,31.83071],[73.534205,31.819426],[73.527336,31.814592],[73.524377,31.81251],[73.522194,31.80596],[73.522193,31.805959],[73.512499,31.811806],[73.511124,31.812635],[73.499262,31.81979],[73.498927,31.820011],[73.493481,31.823593],[73.491606,31.824827],[73.48543,31.82889],[73.482157,31.830569],[73.471235,31.83617],[73.470572,31.836391],[73.462499,31.839082],[73.462498,31.839082],[73.459714,31.828803],[73.457766,31.82161],[73.453229,31.812931],[73.450152,31.807045],[73.449394,31.805594],[73.436274,31.804501],[73.431923,31.804138],[73.426262,31.805339],[73.419911,31.806686],[73.417741,31.809217],[73.411175,31.816878],[73.407525,31.820325],[73.404623,31.823066],[73.399527,31.807414],[73.396251,31.802318],[73.388608,31.798314],[73.388607,31.798314],[73.386505,31.798431],[73.383295,31.798609],[73.375504,31.799042],[73.375503,31.799042],[73.374167,31.798448],[73.359123,31.791762],[73.358033,31.791853],[73.34602,31.792854],[73.345308,31.79288],[73.336192,31.793218],[73.329872,31.785694],[73.328548,31.784118],[73.327042,31.773828],[73.326364,31.769194],[73.324767,31.769194],[73.313989,31.769194],[73.313988,31.769194],[73.30598,31.764826],[73.301001,31.764241],[73.299792,31.764099],[73.296838,31.764571],[73.293428,31.765116],[73.290692,31.765554],[73.290273,31.765606],[73.289152,31.766083],[73.288544,31.766349],[73.287922,31.76662],[73.287434,31.766832],[73.286978,31.767026],[73.285795,31.767359],[73.283868,31.767902],[73.282098,31.768346],[73.281382,31.768525],[73.280449,31.768758],[73.279626,31.76884],[73.2784,31.768962],[73.276849,31.769115],[73.276079,31.769192],[73.275291,31.76916],[73.274509,31.769129],[73.27333,31.769082],[73.271546,31.768613],[73.2709,31.768444],[73.270123,31.76824],[73.269363,31.767952],[73.267334,31.767183],[73.265561,31.766511],[73.264738,31.766194],[73.26271,31.765344],[73.261943,31.765023],[73.259238,31.763845],[73.257692,31.763171],[73.256204,31.762801],[73.255499,31.762627],[73.254971,31.762495],[73.253854,31.762219],[73.253432,31.762114],[73.252878,31.762029],[73.252043,31.761898],[73.251797,31.76186],[73.251292,31.761783],[73.249762,31.761549],[73.2492,31.761607],[73.248452,31.76126],[73.247301,31.760725],[73.246811,31.760548],[73.246481,31.760429],[73.246037,31.760188],[73.245036,31.759645],[73.244896,31.759569],[73.243055,31.758568],[73.24082,31.757354],[73.240482,31.757171],[73.240295,31.757069],[73.240077,31.756951],[73.238818,31.757153],[73.238411,31.757218],[73.237925,31.757296],[73.235695,31.757654],[73.23411,31.757909],[73.23391,31.757941],[73.233818,31.757939],[73.233735,31.757969],[73.233458,31.757988],[73.233295,31.757993],[73.232947,31.758003],[73.232094,31.758049],[73.23157,31.758082],[73.231494,31.758087],[73.231206,31.758115],[73.231019,31.758133],[73.230754,31.758147],[73.229476,31.758281],[73.229208,31.758309],[73.228499,31.758418],[73.228401,31.758436],[73.228123,31.758489],[73.227739,31.758547],[73.227551,31.758588],[73.227384,31.758608],[73.227263,31.758621],[73.227105,31.758639],[73.227028,31.758653],[73.226933,31.758668],[73.226701,31.758705],[73.226432,31.758737],[73.226277,31.758761],[73.225918,31.758801],[73.225626,31.758837],[73.22526,31.758885],[73.22524,31.758888],[73.225007,31.758923],[73.224898,31.758949],[73.224829,31.758979],[73.224761,31.75901],[73.224658,31.759114],[73.224602,31.759172],[73.224494,31.759313],[73.224348,31.759507],[73.224273,31.759606],[73.224243,31.759646],[73.224177,31.759724],[73.223963,31.760045],[73.223667,31.760417],[73.223465,31.760723],[73.223387,31.76083],[73.223255,31.761011],[73.22322,31.761071],[73.223197,31.761124],[73.223128,31.761345],[73.22304,31.761552],[73.222951,31.761787],[73.222892,31.761939],[73.222842,31.762073],[73.22283,31.762105],[73.222799,31.762186],[73.222643,31.762647],[73.222464,31.763172],[73.222449,31.763216],[73.222264,31.763732],[73.222065,31.76441],[73.222052,31.76446],[73.221939,31.764816],[73.221895,31.764935],[73.221797,31.7652],[73.221712,31.765431],[73.221503,31.766017],[73.221489,31.766059],[73.221228,31.766838],[73.221204,31.766909],[73.221121,31.767171],[73.221099,31.767241],[73.220828,31.76784],[73.220777,31.767957],[73.220575,31.768437],[73.22052,31.768547],[73.22032,31.769101],[73.220119,31.76962],[73.220054,31.769788],[73.22001,31.769898],[73.219763,31.770515],[73.219606,31.770935],[73.219526,31.771104],[73.219494,31.771198],[73.219481,31.771235],[73.21938,31.771526],[73.219331,31.771648],[73.219171,31.771956],[73.218964,31.772372],[73.218885,31.77253],[73.218845,31.772611],[73.218548,31.77319],[73.2183,31.773693],[73.218257,31.773782],[73.218032,31.774214],[73.218028,31.774223],[73.217886,31.774505],[73.217789,31.774762],[73.217572,31.775228],[73.217493,31.775396],[73.217358,31.775646],[73.21728,31.775789],[73.217236,31.77587],[73.216959,31.776443],[73.21685,31.776661],[73.216759,31.776847],[73.216595,31.777074],[73.216534,31.777159],[73.216134,31.777711],[73.215803,31.778184],[73.215801,31.778187],[73.21566,31.778384],[73.215333,31.778842],[73.214945,31.779417],[73.214814,31.779597],[73.214768,31.77966],[73.214641,31.779834],[73.214395,31.780165],[73.214351,31.780224],[73.214331,31.780258],[73.214128,31.780551],[73.214084,31.780601],[73.213956,31.780732],[73.213853,31.780912],[73.213795,31.781033],[73.213552,31.781543],[73.213229,31.782181],[73.213099,31.78246],[73.212972,31.782731],[73.212917,31.782823],[73.212856,31.782944],[73.212708,31.783239],[73.212676,31.783224],[73.212632,31.783185],[73.212615,31.78317],[73.212598,31.783114],[73.212611,31.783036],[73.212676,31.782899],[73.212706,31.782781],[73.212699,31.782665],[73.212545,31.782254],[73.21193,31.780556],[73.211817,31.780261],[73.211344,31.77903],[73.210868,31.777769],[73.210717,31.77732],[73.210556,31.776897],[73.210163,31.775877],[73.20986,31.775089],[73.209548,31.774217],[73.209084,31.772956],[73.2087,31.771966],[73.208691,31.771943],[73.208301,31.77091],[73.207687,31.769317],[73.205412,31.769953],[73.20436,31.770257],[73.204321,31.770263],[73.203833,31.769],[73.203431,31.767877],[73.203255,31.767398],[73.20242,31.76763],[73.202398,31.767636],[73.201737,31.767831],[73.201046,31.767991],[73.200278,31.768188],[73.199883,31.768318],[73.199861,31.768325],[73.200047,31.768789],[73.20043,31.769738],[73.200544,31.770023],[73.200563,31.77009],[73.200655,31.770292],[73.200777,31.770612],[73.200995,31.771166],[73.198176,31.771943],[73.197642,31.772089],[73.197591,31.772108],[73.19767,31.772325],[73.197827,31.772817],[73.197989,31.773253],[73.198014,31.77335],[73.198074,31.773467],[73.198334,31.774121],[73.19867,31.774993],[73.198694,31.774984],[73.202001,31.774068],[73.202473,31.775255],[73.202775,31.776085],[73.202787,31.776119],[73.203161,31.777097],[73.203457,31.777891],[73.203501,31.778011],[73.203895,31.779052],[73.204295,31.780145],[73.204654,31.781074],[73.204877,31.781702],[73.205137,31.782334],[73.205322,31.782822],[73.205373,31.782948],[73.205759,31.783899],[73.205809,31.784024],[73.206067,31.784734],[73.206296,31.785343],[73.206635,31.786117],[73.208349,31.785676],[73.209281,31.785437],[73.209525,31.786148],[73.209784,31.786931],[73.209885,31.787236],[73.209819,31.787254],[73.209821,31.78726],[73.20988,31.787512],[73.209928,31.787715],[73.210042,31.788053],[73.209915,31.788349],[73.209888,31.788412],[73.209801,31.788615],[73.209744,31.788747],[73.209742,31.788754],[73.20967,31.788921],[73.209652,31.788962],[73.209628,31.789006],[73.209498,31.789245],[73.209456,31.789323],[73.209364,31.789491],[73.209346,31.789524],[73.20934,31.789535],[73.208995,31.790167],[73.208991,31.790176],[73.208762,31.790012],[73.208748,31.790002],[73.208502,31.789826],[73.205468,31.792324],[73.203828,31.793674],[73.201803,31.795928],[73.199778,31.798182],[73.197097,31.803127],[73.194359,31.808945],[73.194473,31.810399],[73.191164,31.811175],[73.190936,31.811902],[73.191564,31.816119],[73.191735,31.819173],[73.190423,31.82019],[73.188027,31.821499],[73.18546,31.822178],[73.182437,31.822856],[73.180155,31.822905],[73.176162,31.822469],[73.175021,31.822565],[73.171484,31.825134],[73.172226,31.829739],[73.16926,31.834003],[73.160076,31.837735],[73.154828,31.836039],[73.151633,31.837977],[73.148382,31.838898],[73.149637,31.841515],[73.148952,31.841951],[73.145815,31.846021],[73.148838,31.84762],[73.15015,31.848541],[73.151805,31.851012],[73.145986,31.855034],[73.147754,31.858764],[73.148211,31.859443],[73.156311,31.872911],[73.157452,31.874655],[73.158022,31.87882],[73.158022,31.881436],[73.158992,31.882841],[73.159448,31.884488],[73.159867,31.886846],[73.159905,31.887055],[73.160361,31.889573],[73.160706,31.890306],[73.164196,31.893086],[73.165206,31.893891],[73.175566,31.902143],[73.175269,31.906683],[73.172743,31.906305],[73.168044,31.906119],[73.166356,31.906053],[73.162092,31.905807],[73.162875,31.907283],[73.163673,31.909203],[73.163827,31.909573],[73.163983,31.910353],[73.164345,31.911134],[73.164497,31.912135],[73.16552,31.912136],[73.165888,31.913228],[73.169996,31.913174],[73.169599,31.914349],[73.169605,31.914353],[73.169587,31.914498],[73.169561,31.914582],[73.169399,31.915084],[73.169255,31.915533],[73.169102,31.916008],[73.169135,31.916203],[73.169209,31.916651],[73.169251,31.916968],[73.169316,31.917472],[73.169409,31.917614],[73.169588,31.917864],[73.169677,31.918028],[73.169766,31.918193],[73.170066,31.918599],[73.170701,31.919592],[73.17185,31.921226],[73.172328,31.921929],[73.1727,31.922476],[73.173357,31.923204],[73.174144,31.923977],[73.174186,31.92453],[73.174187,31.924539],[73.174244,31.925095],[73.174173,31.925181],[73.174226,31.925669],[73.174235,31.925752],[73.174824,31.926345],[73.175001,31.926523],[73.175111,31.926525],[73.175244,31.926509],[73.175415,31.926537],[73.175481,31.926571],[73.175586,31.926785],[73.175705,31.927047],[73.175886,31.927318],[73.1761,31.927641],[73.176367,31.928151],[73.176619,31.928795],[73.176707,31.92902],[73.176914,31.929607],[73.177214,31.930368],[73.177432,31.930882],[73.177678,31.93146],[73.177711,31.931542],[73.177952,31.932137],[73.178105,31.932512],[73.178246,31.93309],[73.178403,31.933561],[73.178603,31.933959],[73.178611,31.934011],[73.178541,31.934524],[73.178537,31.934908],[73.178164,31.93464],[73.177823,31.934318],[73.177409,31.93468],[73.176834,31.935047],[73.177075,31.935548],[73.177315,31.936048],[73.177359,31.93614],[73.177633,31.936708],[73.177773,31.937001],[73.177327,31.937055],[73.17642,31.937163],[73.175497,31.937274],[73.175475,31.937277],[73.174554,31.937406],[73.173614,31.937539],[73.172661,31.937679],[73.171258,31.937885],[73.171802,31.938849],[73.171983,31.939168],[73.172017,31.939229],[73.172066,31.939317],[73.172076,31.939333],[73.172203,31.939547],[73.172446,31.939955],[73.172469,31.939993],[73.172611,31.940233],[73.173004,31.940893],[73.173362,31.941552],[73.173725,31.94222],[73.173928,31.942594],[73.174069,31.94286],[73.174408,31.943505],[73.175444,31.943382],[73.176357,31.943268],[73.176554,31.943244],[73.177272,31.943154],[73.178086,31.94307],[73.178193,31.943059],[73.17912,31.942962],[73.179617,31.942912],[73.179702,31.942904],[73.179696,31.942933],[73.179642,31.943007],[73.179551,31.94313],[73.179269,31.943514],[73.179205,31.943601],[73.178989,31.943894],[73.179037,31.943978],[73.179116,31.944116],[73.179182,31.945114],[73.1792,31.945391],[73.179249,31.946134],[73.179599,31.946771],[73.179821,31.947225],[73.179924,31.947436],[73.180243,31.948086],[73.180406,31.948406],[73.180663,31.94865],[73.181147,31.949112],[73.181628,31.949569],[73.182114,31.950039],[73.182593,31.950502],[73.182797,31.950688],[73.182995,31.951046],[73.183306,31.951606],[73.183331,31.951686],[73.183414,31.95193],[73.18356,31.952358],[73.183565,31.952449],[73.183627,31.953431],[73.183878,31.954156],[73.184085,31.954976],[73.184196,31.955417],[73.184218,31.955866],[73.184267,31.956882],[73.184662,31.957461],[73.185045,31.958023],[73.185446,31.95859],[73.185692,31.958937],[73.185917,31.95908],[73.186465,31.959427],[73.187036,31.959789],[73.187586,31.960149],[73.188148,31.960516],[73.188693,31.960897],[73.18874,31.960931],[73.189138,31.961224],[73.189249,31.961271],[73.189884,31.961541],[73.190523,31.961813],[73.191335,31.962148],[73.191326,31.962156],[73.191662,31.962505],[73.192122,31.962998],[73.192581,31.963497],[73.192975,31.963921],[73.194043,31.965152],[73.194371,31.965501],[73.194652,31.965854],[73.194872,31.966184],[73.195138,31.966559],[73.195345,31.966835],[73.195426,31.96707],[73.19564,31.967269],[73.196006,31.9675],[73.196953,31.968068],[73.197803,31.96857],[73.198392,31.968836],[73.19928,31.969238],[73.19963,31.969424],[73.200061,31.969526],[73.200427,31.969598],[73.200594,31.969621],[73.200717,31.969657],[73.200934,31.969776],[73.201196,31.969978],[73.201365,31.970145],[73.201461,31.970219],[73.20166,31.97037],[73.201765,31.970423],[73.202016,31.970534],[73.202276,31.970871],[73.202701,31.971421],[73.20277,31.971511],[73.20279,31.971537],[73.203011,31.971725],[73.20323,31.971895],[73.203271,31.971927],[73.203567,31.972233],[73.20362,31.972289],[73.204075,31.972697],[73.204108,31.972727],[73.204279,31.972893],[73.204582,31.973186],[73.204601,31.973215],[73.204758,31.973443],[73.204808,31.973573],[73.204811,31.973577],[73.205186,31.974102],[73.205353,31.974392],[73.205946,31.974773],[73.206001,31.974795],[73.206409,31.975002],[73.206432,31.975016],[73.20685,31.975261],[73.20779,31.975743],[73.20829,31.976008],[73.208864,31.976345],[73.209115,31.976499],[73.209484,31.976767],[73.209519,31.976793],[73.210097,31.977202],[73.210729,31.977642],[73.211224,31.977988],[73.21132,31.978055],[73.211731,31.97834],[73.211811,31.9784],[73.212119,31.978626],[73.212231,31.97871],[73.212325,31.978799],[73.212359,31.978902],[73.212416,31.979142],[73.212456,31.979316],[73.212475,31.979395],[73.212877,31.979665],[73.213071,31.979813],[73.213301,31.979989],[73.213509,31.98012],[73.214234,31.980447],[73.214292,31.980475],[73.214642,31.980634],[73.215102,31.980784],[73.215321,31.980855],[73.21542,31.980861],[73.215523,31.980784],[73.215582,31.98072],[73.216016,31.980984],[73.216555,31.981351],[73.216623,31.981397],[73.217266,31.981809],[73.21738,31.981892],[73.217651,31.982204],[73.217873,31.982494],[73.218178,31.98285],[73.218451,31.983202],[73.218532,31.983307],[73.21882,31.983665],[73.219198,31.984169],[73.219259,31.984263],[73.219448,31.984557],[73.219657,31.984959],[73.219895,31.985418],[73.220119,31.985872],[73.22023,31.986225],[73.220364,31.986695],[73.22055,31.987226],[73.220763,31.987937],[73.220888,31.988281],[73.221159,31.989026],[73.221431,31.989771],[73.221625,31.990131],[73.221737,31.990314],[73.221787,31.990607],[73.221804,31.990807],[73.22178,31.990876],[73.221702,31.990983],[73.221628,31.99109],[73.221525,31.991404],[73.221452,31.991666],[73.221333,31.991873],[73.221176,31.992248],[73.221099,31.992569],[73.221071,31.992697],[73.221037,31.992856],[73.220989,31.993161],[73.220953,31.993464],[73.220904,31.993867],[73.220872,31.994134],[73.220853,31.994334],[73.220833,31.994511],[73.220804,31.99468],[73.220755,31.995038],[73.220705,31.995393],[73.220661,31.995782],[73.220642,31.995954],[73.220617,31.99617],[73.220577,31.996467],[73.220566,31.996617],[73.220589,31.996707],[73.220661,31.996992],[73.220882,31.997688],[73.221008,31.998167],[73.22116,31.998668],[73.221301,31.999159],[73.221341,31.999306],[73.221486,31.999844],[73.221826,32.001589],[73.221858,32.00158],[73.222039,32.001529],[73.222587,32.004303],[73.222731,32.004305],[73.222665,32.004799],[73.222597,32.005304],[73.222584,32.0054],[73.222574,32.00548],[73.222447,32.006139],[73.222361,32.006559],[73.222313,32.006796],[73.22221,32.007465],[73.222106,32.008111],[73.221966,32.008754],[73.221884,32.009203],[73.221848,32.009401],[73.221736,32.010047],[73.221691,32.010303],[73.221626,32.010676],[73.221509,32.011308],[73.221399,32.011829],[73.221373,32.011953],[73.22124,32.012583],[73.22112,32.013238],[73.221003,32.013887],[73.220992,32.013964],[73.220838,32.014006],[73.220862,32.014765],[73.22087,32.014945],[73.220895,32.015514],[73.220898,32.015589],[73.220928,32.016285],[73.220962,32.017066],[73.221009,32.017825],[73.221056,32.018562],[73.220486,32.018685],[73.220137,32.01876],[73.219234,32.018953],[73.219228,32.018954],[73.219176,32.018964],[73.218235,32.019137],[73.218226,32.019138],[73.21732,32.01925],[73.217277,32.019256],[73.216609,32.01935],[73.216466,32.019405],[73.215818,32.019651],[73.21517,32.019898],[73.215119,32.019918],[73.214633,32.020103],[73.214491,32.020157],[73.214485,32.020159],[73.214182,32.020282],[73.214139,32.020299],[73.213839,32.020487],[73.213178,32.020766],[73.212828,32.020913],[73.212504,32.02105],[73.212491,32.021055],[73.211822,32.021338],[73.211803,32.021346],[73.211562,32.021431],[73.211115,32.021589],[73.211102,32.021594],[73.210415,32.021882],[73.209752,32.022161],[73.209729,32.02217],[73.20907,32.022447],[73.209047,32.022456],[73.208339,32.02273],[73.20807,32.022834],[73.209084,32.023413],[73.209097,32.02342],[73.209655,32.023746],[73.210202,32.024066],[73.210212,32.024071],[73.210761,32.024381],[73.210766,32.024384],[73.211337,32.024685],[73.211914,32.024989],[73.21214,32.025109],[73.212169,32.025124],[73.212183,32.025132],[73.2125,32.025317],[73.212611,32.025381],[73.213,32.025608],[73.213109,32.025671],[73.213112,32.025673],[73.213705,32.025988],[73.214178,32.026239],[73.214283,32.026295],[73.214299,32.026303],[73.214869,32.026606],[73.215452,32.026916],[73.215641,32.027016],[73.215845,32.027124],[73.216042,32.027229],[73.216634,32.027543],[73.217213,32.027842],[73.217221,32.027845],[73.217461,32.027971],[73.217807,32.028151],[73.218397,32.028459],[73.218971,32.028758],[73.218986,32.028766],[73.219583,32.029072],[73.220188,32.029381],[73.220206,32.02939],[73.220801,32.029691],[73.221405,32.029997],[73.221409,32.029999],[73.22199,32.030308],[73.222577,32.030619],[73.222587,32.030625],[73.223168,32.030977],[73.223176,32.030982],[73.223763,32.031309],[73.224363,32.031643],[73.224742,32.031854],[73.225075,32.031843],[73.225081,32.031843],[73.225384,32.031841],[73.22596,32.031837],[73.225982,32.031837],[73.226267,32.031827],[73.226723,32.031963],[73.227428,32.032173],[73.228145,32.032387],[73.228152,32.032389],[73.228585,32.032514],[73.228904,32.032546],[73.229718,32.032628],[73.230058,32.032662],[73.230267,32.032683],[73.230533,32.03271],[73.231374,32.032777],[73.231418,32.032781],[73.231954,32.032918],[73.232131,32.032921],[73.232142,32.032921],[73.232983,32.032962],[73.233824,32.033003],[73.233834,32.033003],[73.23467,32.03306],[73.235783,32.033136],[73.23587,32.033142],[73.235885,32.033141],[73.235842,32.033746],[73.235866,32.03449],[73.235974,32.035298],[73.236068,32.03608],[73.236071,32.036146],[73.236108,32.036856],[73.236148,32.03754],[73.236152,32.037617],[73.236101,32.038207],[73.236091,32.038318],[73.236005,32.039],[73.235958,32.039709],[73.235909,32.040432],[73.235983,32.041098],[73.235992,32.041226],[73.236103,32.041456],[73.236265,32.041819],[73.236454,32.042243],[73.236597,32.042465],[73.236968,32.043079],[73.237332,32.043706],[73.237526,32.044058],[73.237729,32.044269],[73.238199,32.044761],[73.238301,32.044865],[73.238783,32.045138],[73.239383,32.045458],[73.239985,32.045776],[73.240586,32.046102],[73.241189,32.046401],[73.24176,32.04668],[73.241808,32.046703],[73.242427,32.047008],[73.243041,32.047309],[73.243646,32.04762],[73.244249,32.047937],[73.244845,32.048263],[73.245183,32.048462],[73.245441,32.048614],[73.246011,32.048972],[73.246328,32.049167],[73.246487,32.049003],[73.246943,32.048514],[73.247075,32.048383],[73.247337,32.048424],[73.247989,32.048537],[73.248997,32.048269],[73.249975,32.048093],[73.250942,32.047942],[73.251711,32.047644],[73.251917,32.047565],[73.252,32.047535],[73.252216,32.047765],[73.252646,32.04827],[73.253067,32.048767],[73.253497,32.049291],[73.253679,32.050041],[73.253847,32.050832],[73.253927,32.051058],[73.254123,32.051611],[73.254348,32.052087],[73.254424,32.052249],[73.254746,32.052915],[73.25487,32.053156],[73.255056,32.053659],[73.25521,32.054074],[73.255564,32.05407],[73.255568,32.054078],[73.255598,32.054078],[73.255608,32.0541],[73.255684,32.054277],[73.255472,32.054234],[73.255184,32.054077],[73.255026,32.054077],[73.254621,32.054132],[73.254613,32.054134],[73.253502,32.054279],[73.253496,32.05428],[73.252339,32.05447],[73.252334,32.054471],[73.251169,32.054663],[73.251164,32.054664],[73.249995,32.054849],[73.249987,32.05485],[73.24922,32.054845],[73.248986,32.054884],[73.248984,32.054884],[73.247783,32.055103],[73.246917,32.055186],[73.246803,32.055197],[73.246312,32.05566],[73.245775,32.056166],[73.245252,32.056665],[73.245244,32.056672],[73.244674,32.057153],[73.244101,32.057637],[73.244091,32.057687],[73.24409,32.057689],[73.244039,32.057763],[73.243577,32.0582],[73.243571,32.058206],[73.243041,32.058693],[73.243029,32.058704],[73.242499,32.059192],[73.241983,32.059666],[73.241951,32.059695],[73.24195,32.059697],[73.241526,32.060265],[73.241523,32.060269],[73.241087,32.060823],[73.241081,32.06083],[73.240719,32.061291],[73.240664,32.061409],[73.240637,32.062279],[73.240452,32.068142],[73.24152,32.068066],[73.242579,32.06799],[73.243589,32.067894],[73.243595,32.067892],[73.24368,32.067872],[73.244658,32.067851],[73.24468,32.06785],[73.244777,32.067848],[73.24567,32.067839],[73.245981,32.067836],[73.246007,32.068007],[73.246004,32.068754],[73.246012,32.069494],[73.24602,32.070238],[73.246102,32.071022],[73.246072,32.071722],[73.24604,32.072421],[73.246004,32.073133],[73.24596,32.07383],[73.245937,32.074534],[73.245916,32.07524],[73.245899,32.075962],[73.245883,32.076678],[73.245869,32.077388],[73.245835,32.078252],[73.245909,32.078344],[73.246349,32.078894],[73.246783,32.079437],[73.247212,32.080007],[73.24761,32.08061],[73.247843,32.080963],[73.247883,32.081023],[73.247994,32.081191],[73.248091,32.081339],[73.248273,32.081615],[73.24834,32.08177],[73.248744,32.082347],[73.249117,32.08295],[73.249513,32.083516],[73.249914,32.084091],[73.250315,32.084634],[73.250728,32.085193],[73.251171,32.085703],[73.251607,32.086217],[73.25203,32.086748],[73.252477,32.087166],[73.253397,32.087415],[73.253957,32.087681],[73.254011,32.087707],[73.254625,32.087999],[73.255242,32.088297],[73.255849,32.088591],[73.256458,32.088885],[73.257067,32.089141],[73.257339,32.089279],[73.257652,32.089438],[73.258261,32.089747],[73.258852,32.090048],[73.259456,32.090355],[73.260066,32.090658],[73.260665,32.090956],[73.261269,32.091256],[73.26181,32.091525],[73.261874,32.091556],[73.262471,32.091853],[73.263082,32.092145],[73.263679,32.09243],[73.264291,32.092722],[73.264815,32.092972],[73.2649,32.093016],[73.265004,32.093069],[73.265504,32.093325],[73.266101,32.09363],[73.266351,32.093758],[73.266761,32.093882],[73.266949,32.093939],[73.267105,32.094259],[73.26719,32.094449],[73.267338,32.094779],[73.267843,32.095901],[73.268126,32.096506],[73.26821,32.096579],[73.268731,32.097032],[73.269261,32.097492],[73.269793,32.097954],[73.270319,32.098412],[73.270847,32.09887],[73.271375,32.099329],[73.271899,32.099784],[73.272413,32.100233],[73.272941,32.100695],[73.273472,32.101158],[73.273987,32.101609],[73.274467,32.102019],[73.274538,32.102038],[73.275268,32.102243],[73.276015,32.102453],[73.27674,32.102657],[73.277476,32.102862],[73.278206,32.103065],[73.278945,32.103283],[73.279643,32.103489],[73.28309,32.104732],[73.284351,32.105207],[73.286492,32.106013],[73.28805,32.107373],[73.289172,32.108353],[73.29057,32.109208],[73.29088,32.109462],[73.291501,32.10998],[73.292117,32.110504],[73.292728,32.111033],[73.293335,32.111567],[73.293482,32.111698],[73.293729,32.111919],[73.293691,32.112129],[73.293623,32.112473],[73.293547,32.112816],[73.293465,32.113157],[73.293376,32.113497],[73.293279,32.113834],[73.293176,32.11417],[73.293066,32.114503],[73.292949,32.114834],[73.29285,32.115099],[73.29282,32.115181],[73.292774,32.115329],[73.292734,32.115479],[73.292702,32.115631],[73.292676,32.115784],[73.292658,32.115938],[73.292647,32.116093],[73.292644,32.116248],[73.292647,32.116404],[73.292658,32.116559],[73.292672,32.116673],[73.292676,32.116713],[73.292702,32.116866],[73.292734,32.117018],[73.292774,32.117168],[73.29282,32.117316],[73.292874,32.117462],[73.292934,32.117605],[73.293001,32.117745],[73.293075,32.117882],[73.293154,32.118016],[73.29324,32.118145],[73.293332,32.11827],[73.29343,32.118391],[73.293533,32.118507],[73.293641,32.118618],[73.293755,32.118724],[73.293874,32.118824],[73.293997,32.118919],[73.294124,32.119008],[73.294255,32.119091],[73.294372,32.119157],[73.294459,32.119225],[73.294664,32.119378],[73.294873,32.119525],[73.295087,32.119667],[73.295304,32.119802],[73.295525,32.119931],[73.295749,32.120053],[73.295977,32.12017],[73.296208,32.12028],[73.296442,32.120383],[73.296679,32.120479],[73.296918,32.120569],[73.297094,32.12063],[73.29716,32.120653],[73.297404,32.120729],[73.297651,32.120798],[73.297899,32.120861],[73.298148,32.120916],[73.2984,32.120964],[73.298652,32.121006],[73.298906,32.12104],[73.29916,32.121067],[73.299354,32.121082],[73.29972,32.120767],[73.30041,32.120799],[73.301394,32.120896],[73.303927,32.12109],[73.304643,32.121161],[73.304716,32.121101],[73.305692,32.121198],[73.306962,32.121322],[73.310157,32.121609],[73.3121,32.121787],[73.314149,32.122005],[73.313929,32.124184],[73.313724,32.126051],[73.313542,32.12766],[73.313824,32.127675],[73.319235,32.127747],[73.319146,32.131771],[73.319146,32.13178],[73.32286,32.13275],[73.324942,32.133396],[73.326987,32.134152],[73.32899,32.135014],[73.331424,32.136239],[73.333283,32.1374],[73.337665,32.140808],[73.337745,32.140878],[73.342704,32.14518],[73.34311,32.145532],[73.345155,32.147139],[73.346977,32.148223],[73.347037,32.148259],[73.347608,32.148542],[73.350774,32.149107],[73.351972,32.14932],[73.353312,32.150139],[73.355517,32.151484],[73.358561,32.153343],[73.36181,32.155326],[73.366981,32.158425],[73.367682,32.158845],[73.370101,32.160333],[73.370103,32.160334],[73.371027,32.161071],[73.372254,32.16205],[73.373799,32.163282],[73.377007,32.166757],[73.378922,32.169461],[73.378754,32.16982],[73.378315,32.170755],[73.379047,32.17104],[73.380576,32.171636],[73.381639,32.172033],[73.385274,32.173393],[73.388268,32.174512],[73.388714,32.174679],[73.392283,32.176014],[73.393078,32.176309],[73.402022,32.179629],[73.402348,32.17975],[73.402896,32.179917],[73.40319,32.180006],[73.403215,32.179807],[73.403285,32.17982],[73.403743,32.179904],[73.406381,32.180391],[73.408978,32.180853],[73.412781,32.181588],[73.41562,32.182116],[73.416102,32.182206],[73.416113,32.182208],[73.41759,32.182501],[73.41933,32.182833],[73.421058,32.183139],[73.42278,32.185757],[73.422917,32.185964],[73.42397,32.187566],[73.425072,32.189268],[73.425781,32.190365],[73.426882,32.192065],[73.428543,32.194625],[73.428877,32.195139],[73.428893,32.195155],[73.429822,32.19607],[73.431961,32.198214],[73.433272,32.199493],[73.433969,32.200173],[73.434149,32.2003],[73.43526,32.2014],[73.435368,32.201505],[73.435434,32.20157],[73.437179,32.203273],[73.43765,32.203729],[73.438483,32.204536],[73.438787,32.204802],[73.439196,32.205159],[73.440299,32.206263],[73.441272,32.207237],[73.441309,32.207274],[73.443115,32.20908],[73.4433,32.209264],[73.443648,32.20961],[73.443946,32.209906],[73.443924,32.209906],[73.443209,32.209896],[73.444768,32.211278],[73.445871,32.212255],[73.448339,32.214365],[73.450596,32.216294],[73.45104,32.216674],[73.453367,32.218663],[73.45342,32.218708],[73.453917,32.219133],[73.454333,32.219677],[73.456765,32.222856],[73.45757,32.223908],[73.457579,32.223921],[73.460047,32.227031],[73.460472,32.227489],[73.46166,32.228741],[73.461665,32.228754],[73.461864,32.228553],[73.462049,32.228476],[73.462158,32.228611],[73.462318,32.228728],[73.462689,32.228983],[73.463227,32.229469],[73.463565,32.229774],[73.464047,32.230198],[73.464727,32.230804],[73.464824,32.230894],[73.465218,32.231259],[73.466017,32.231971],[73.466192,32.232131],[73.466324,32.232256],[73.466442,32.232359],[73.466561,32.232468],[73.467213,32.233079],[73.467862,32.23365],[73.468208,32.233963],[73.468255,32.234006],[73.468494,32.234231],[73.468687,32.234399],[73.469207,32.234873],[73.470193,32.235738],[73.471445,32.236845],[73.471832,32.237184],[73.471968,32.237297],[73.472065,32.237405],[73.472099,32.23739],[73.472106,32.237395],[73.470554,32.238528],[73.46965,32.239232],[73.468727,32.239908],[73.467599,32.24075],[73.468365,32.241502],[73.469517,32.242673],[73.470307,32.243453],[73.471097,32.244243],[73.472001,32.2447],[73.472195,32.244801],[73.473233,32.245343],[73.474361,32.245933],[73.474359,32.247717],[73.474358,32.248766],[73.474357,32.249507],[73.475505,32.248903],[73.476275,32.24854],[73.476461,32.248829],[73.476536,32.249068],[73.476668,32.249223],[73.477356,32.250405],[73.477418,32.250702],[73.477508,32.250732],[73.478349,32.251477],[73.478669,32.251815],[73.478579,32.251842],[73.478578,32.25189],[73.478702,32.251872],[73.479239,32.251984],[73.479711,32.25199],[73.479694,32.252333],[73.48052,32.252368],[73.480637,32.25245],[73.480672,32.252474],[73.481202,32.252844],[73.481887,32.253321],[73.48321,32.251876],[73.485306,32.24952],[73.487588,32.247006],[73.488854,32.245559],[73.491562,32.244416],[73.495196,32.242849],[73.498258,32.241531],[73.500223,32.242535],[73.50259,32.243747],[73.502887,32.243402],[73.50435,32.244298],[73.505546,32.245023],[73.505596,32.245271],[73.50599,32.247206],[73.504028,32.248227],[73.504503,32.249902],[73.504896,32.251488],[73.505562,32.25398],[73.506059,32.256059],[73.506451,32.257669],[73.507052,32.260216],[73.507467,32.262199],[73.507744,32.263428],[73.508224,32.265981],[73.508505,32.267559],[73.508933,32.269889],[73.508948,32.26997],[73.50906,32.270573],[73.508862,32.270925],[73.508007,32.272482],[73.507946,32.272564],[73.509298,32.273204],[73.509575,32.273333],[73.509815,32.273444],[73.509951,32.273508],[73.509914,32.272955],[73.510741,32.27167],[73.512689,32.273678],[73.518229,32.274262],[73.52026,32.275303],[73.521348,32.276149],[73.523438,32.277775],[73.526014,32.278429],[73.527031,32.278446],[73.52723,32.27845],[73.528761,32.278476],[73.530687,32.279032],[73.531251,32.280315],[73.532084,32.282207],[73.532521,32.283135],[73.533612,32.285124],[73.534278,32.285624],[73.53507,32.286218],[73.538132,32.286728],[73.539271,32.286774],[73.54017,32.28681],[73.541183,32.286851],[73.541955,32.286882],[73.543565,32.286947],[73.546931,32.287083],[73.552315,32.287345],[73.552884,32.287625],[73.560499,32.29137],[73.563949,32.29256],[73.569749,32.29601],[73.572545,32.299698],[73.574091,32.301602],[73.577423,32.30303],[73.5812,32.304398],[73.585662,32.306034],[73.588851,32.307518],[73.589004,32.30759],[73.589526,32.307833],[73.589935,32.307943],[73.590618,32.308126],[73.591215,32.308287],[73.591688,32.308414],[73.591918,32.308476],[73.594199,32.309089],[73.596674,32.309765],[73.599862,32.310726],[73.604241,32.311982],[73.606915,32.312715],[73.610047,32.313619],[73.61195,32.314162],[73.614596,32.314923],[73.616024,32.31538],[73.618689,32.316151],[73.620364,32.316684],[73.621154,32.316884],[73.622353,32.317208],[73.623153,32.317398],[73.624038,32.317703],[73.624637,32.317845],[73.625633,32.318102],[73.626113,32.318226],[73.626399,32.318321],[73.627264,32.318607],[73.628016,32.318911],[73.629111,32.319397],[73.630063,32.319797],[73.630795,32.319949],[73.63129,32.320111],[73.631637,32.320232],[73.632594,32.320567],[73.632552,32.320604],[73.632085,32.321266],[73.632012,32.321369],[73.632002,32.321383],[73.632006,32.321384],[73.632743,32.321711],[73.633466,32.322031],[73.633615,32.322097],[73.634473,32.322477],[73.634512,32.322494],[73.634547,32.32251],[73.634729,32.322593],[73.634806,32.322628],[73.634905,32.322671],[73.635175,32.322787],[73.635213,32.322804],[73.635322,32.322851],[73.635727,32.323025],[73.640044,32.324841],[73.642545,32.325927],[73.645515,32.32732],[73.646611,32.327876],[73.647819,32.328488],[73.649375,32.329277],[73.65054,32.329828],[73.650675,32.329892],[73.652053,32.330543],[73.652061,32.330547],[73.652051,32.330572],[73.652011,32.330664],[73.652042,32.330681],[73.652825,32.3311],[73.652459,32.333191],[73.652117,32.336366],[73.652074,32.336639],[73.652048,32.336811],[73.651957,32.336925],[73.652242,32.33688],[73.661547,32.339483],[73.662042,32.339621],[73.664988,32.340523],[73.668164,32.341505],[73.670197,32.342156],[73.673246,32.343127],[73.673306,32.343146],[73.673781,32.343296],[73.67585,32.34395],[73.677346,32.344418],[73.677951,32.344584],[73.678763,32.344806]],[[73.301199,31.885411],[73.301245,31.885403],[73.301256,31.885481],[73.301199,31.885411]]]]}}]}