{"type":"FeatureCollection","features":[{"type":"Feature","properties":{"lu":"Oil Depot Buffer Zone","ct":"Proposed","a":1.782},"geometry":{"type":"MultiPolygon","coordinates":[[[[73.70835,32.076],[73.7077,32.07595],[73.70773,32.07669],[73.70835,32.07716],[73.70843,32.07712],[73.70853,32.07678],[73.70835,32.076]]]]}},{"type":"Feature","properties":{"lu":"Oil Depot Buffer Zone","ct":"Proposed","a":17.223},"geometry":{"type":"MultiPolygon","coordinates":[[[[73.71067,32.07912],[73.71056,32.07925],[73.71022,32.07906],[73.71013,32.07914],[73.71,32.07906],[73.70902,32.07915],[73.70901,32.07889],[73.70882,32.07888],[73.70879,32.07904],[73.708,32.07893],[73.70759,32.08043],[73.70767,32.08049],[73.71325,32.08096],[73.71297,32.08067],[73.71127,32.07955],[73.71123,32.07961],[73.7112,32.0795],[73.71067,32.07912]]]]}},{"type":"Feature","properties":{"lu":"Notified Area","ct":"Existing","a":0.008},"geometry":{"type":"MultiPolygon","coordinates":[[[[73.727033,32.07627],[73.726649,32.075969],[73.726646,32.075972],[73.727033,32.07627]]],[[[73.72807,32.07748],[73.72782,32.07718],[73.72755,32.07685],[73.72807,32.07748]]]]}},{"type":"Feature","properties":{"lu":"Notified Area","ct":"Existing","a":668.049,"nm":"Air Base"},"geometry":{"type":"MultiPolygon","coordinates":[[[[73.79954,32.08125],[73.79372,32.07708],[73.79265,32.07579],[73.79056,32.07457],[73.78736,32.07242],[73.78715,32.0717],[73.78749,32.0712],[73.78751,32.07103],[73.78012,32.06587],[73.77986,32.06587],[73.77814,32.06761],[73.77548,32.06475],[73.77536,32.06426],[73.77466,32.06452],[73.77364,32.06555],[73.77199,32.06436],[73.77144,32.06487],[73.77314,32.06603],[73.77184,32.06733],[73.7732,32.06856],[73.77538,32.06984],[73.7756,32.07012],[73.77395,32.07184],[73.77961,32.0758],[73.77984,32.07627],[73.78075,32.07686],[73.78098,32.07658],[73.78399,32.07859],[73.78418,32.07894],[73.78415,32.08264],[73.78521,32.08266],[73.7891,32.08239],[73.79623,32.08764],[73.79757,32.08848],[73.79762,32.08961],[73.79889,32.08967],[73.8,32.09015],[73.80048,32.0901],[73.80047,32.09065],[73.80252,32.09071],[73.79954,32.08125]]]]}},{"type":"Feature","properties":{"lu":"Notified Area","ct":"Existing","a":78.963,"nm":"Oil Depot"},"geometry":{"type":"MultiPolygon","coordinates":[[[[73.71406,32.08325],[73.71352,32.08236],[73.71344,32.08152],[73.71325,32.08096],[73.70767,32.08049],[73.70759,32.08043],[73.70772,32.07989],[73.70664,32.08079],[73.70665,32.08112],[73.70723,32.08124],[73.70685,32.08478],[73.70691,32.08478],[73.70687,32.08534],[73.7128,32.08579],[73.71305,32.08311],[73.71312,32.08305],[73.71406,32.08325]]]]}},{"type":"Feature","properties":{"lu":"State Land","ct":"Existing","a":0.001},"geometry":{"type":"MultiPolygon","coordinates":[[[[73.501001,31.85974],[73.501001,31.859735],[73.500793,31.859802],[73.501001,31.85974]]]]}},{"type":"Feature","properties":{"lu":"Oil Depot Buffer Zone","ct":"Proposed","a":48.09},"geometry":{"type":"MultiPolygon","coordinates":[[[[73.70664,32.08079],[73.70473,32.07972],[73.70458,32.08089],[73.70386,32.08084],[73.7038,32.08144],[73.70314,32.08137],[73.70315,32.08077],[73.70251,32.08073],[73.70194,32.08127],[73.70193,32.08139],[73.70232,32.0816],[73.70221,32.0819],[73.70184,32.08227],[73.70182,32.08247],[73.70296,32.0826],[73.70283,32.0838],[73.70169,32.0837],[73.70167,32.08389],[73.70213,32.08442],[73.70685,32.08478],[73.70723,32.08124],[73.70665,32.08112],[73.70664,32.08079]]]]}},{"type":"Feature","properties":{"lu":"State Land","ct":"Existing","a":0.642},"geometry":{"type":"MultiPolygon","coordinates":[[[[73.60475,31.98031],[73.60473,31.98011],[73.60451,31.98017],[73.60398,31.97963],[73.60375,31.97969],[73.60447,31.98043],[73.60475,31.98031]]]]}},{"type":"Feature","properties":{"lu":"Green Buffer Zone","ct":"Proposed","a":6.557},"geometry":{"type":"MultiPolygon","coordinates":[[[[73.37158,32.05026],[73.3716,32.05014],[73.37151,32.05011],[73.37165,32.04961],[73.3724,32.04967],[73.37236,32.05002],[73.37269,32.04992],[73.37162,32.04755],[73.37117,32.04768],[73.37103,32.04849],[73.37121,32.04855],[73.37103,32.04961],[73.37114,32.04967],[73.37109,32.04986],[73.37097,32.04985],[73.37083,32.05048],[73.37158,32.05026]]]]}},{"type":"Feature","properties":{"lu":"Green Buffer Zone","ct":"Proposed","a":0.812},"geometry":{"type":"MultiPolygon","coordinates":[[[[73.58609,31.98209],[73.5847,31.97952],[73.5846,31.97956],[73.58598,31.98212],[73.58609,31.98209]]]]}},{"type":"Feature","properties":{"lu":"Green Buffer Zone","ct":"Proposed","a":2.543},"geometry":{"type":"MultiPolygon","coordinates":[[[[73.6425,32.06901],[73.64227,32.06623],[73.64441,32.06609],[73.64465,32.0689],[73.64478,32.0689],[73.64449,32.066],[73.64216,32.06617],[73.64237,32.06902],[73.6425,32.06901]]]]}},{"type":"Feature","properties":{"lu":"Green Buffer Zone","ct":"Proposed","a":1.94},"geometry":{"type":"MultiPolygon","coordinates":[[[[73.74942,32.07843],[73.75123,32.07343],[73.75107,32.07343],[73.75103,32.07351],[73.7493,32.0784],[73.74942,32.07843]]]]}},{"type":"Feature","properties":{"lu":"Green Buffer Zone","ct":"Proposed","a":3.021},"geometry":{"type":"MultiPolygon","coordinates":[[[[73.75252,32.06984],[73.75196,32.06983],[73.75171,32.07056],[73.75163,32.07148],[73.75147,32.07226],[73.75107,32.07343],[73.75123,32.07343],[73.75252,32.06984]]]]}},{"type":"Feature","properties":{"lu":"Green Buffer Zone","ct":"Proposed","a":9.797},"geometry":{"type":"MultiPolygon","coordinates":[[[[73.74935,32.07866],[73.74898,32.07857],[73.74873,32.07933],[73.74888,32.07937],[73.74884,32.07953],[73.74867,32.07948],[73.74561,32.08791],[73.74596,32.08813],[73.74935,32.07866]]]]}},{"type":"Feature","properties":{"lu":"Green Buffer Zone","ct":"Proposed","a":0.495},"geometry":{"type":"MultiPolygon","coordinates":[[[[73.40046,32.05322],[73.40045,32.0533],[73.40168,32.05451],[73.4023,32.0554],[73.40238,32.05541],[73.40174,32.05447],[73.40046,32.05322]]]]}},{"type":"Feature","properties":{"lu":"Green Buffer Zone","ct":"Proposed","a":0.699},"geometry":{"type":"MultiPolygon","coordinates":[[[[73.40358,32.05908],[73.40302,32.05652],[73.40275,32.05596],[73.40241,32.05545],[73.40233,32.05545],[73.40295,32.05654],[73.40351,32.05908],[73.40358,32.05908]]]]}},{"type":"Feature","properties":{"lu":"Green Buffer Zone","ct":"Proposed","a":0.59},"geometry":{"type":"MultiPolygon","coordinates":[[[[73.37894,32.04872],[73.37895,32.04866],[73.37527,32.04934],[73.37527,32.0494],[73.37894,32.04872]]]]}},{"type":"Feature","properties":{"lu":"Green Buffer Zone","ct":"Proposed","a":0.414},"geometry":{"type":"MultiPolygon","coordinates":[[[[73.37523,32.04941],[73.37524,32.04935],[73.37266,32.04986],[73.37269,32.04992],[73.37523,32.04941]]]]}},{"type":"Feature","properties":{"lu":"Green Buffer Zone","ct":"Proposed","a":1.439},"geometry":{"type":"MultiPolygon","coordinates":[[[[73.39477,32.04774],[73.39418,32.04737],[73.39369,32.04718],[73.39215,32.04687],[73.39213,32.04694],[73.39367,32.04723],[73.39415,32.04742],[73.39483,32.04787],[73.39477,32.04774]]],[[[73.39493,32.04795],[73.39843,32.05134],[73.39852,32.05134],[73.39486,32.04781],[73.39493,32.04795]]],[[[73.39879,32.0516],[73.3986,32.05151],[73.39912,32.052],[73.3992,32.05199],[73.39879,32.0516]]]]}},{"type":"Feature","properties":{"lu":"Green Buffer Zone","ct":"Proposed","a":0.832},"geometry":{"type":"MultiPolygon","coordinates":[[[[73.38546,32.04695],[73.38547,32.04687],[73.38043,32.0483],[73.38042,32.04836],[73.38546,32.04695]]]]}},{"type":"Feature","properties":{"lu":"Notified Area","ct":"Existing","a":0.0},"geometry":{"type":"MultiPolygon","coordinates":[[[[73.681217,32.072394],[73.681157,32.07244],[73.681159,32.072442],[73.681163,32.07244],[73.681217,32.072394]]]]}},{"type":"Feature","properties":{"lu":"Notified Area","ct":"Existing","a":14.675},"geometry":{"type":"MultiPolygon","coordinates":[[[[73.72807,32.07748],[73.72703,32.07627],[73.72665,32.07597],[73.72545,32.07677],[73.72548,32.07683],[73.72434,32.07755],[73.7256,32.079],[73.72807,32.07748]]]]}},{"type":"Feature","properties":{"lu":"State Land","ct":"Existing","a":35.894},"geometry":{"type":"MultiPolygon","coordinates":[[[[73.69769,32.0833],[73.69791,32.08311],[73.69609,32.08048],[73.69618,32.08032],[73.69603,32.08027],[73.69599,32.08033],[73.69413,32.07752],[73.69399,32.07759],[73.68975,32.07129],[73.68991,32.07132],[73.68966,32.07089],[73.68947,32.07089],[73.68913,32.07035],[73.68818,32.06925],[73.68698,32.068],[73.68479,32.06594],[73.67067,32.05091],[73.67027,32.05108],[73.67466,32.05576],[73.67531,32.05639],[73.6754,32.05634],[73.67548,32.0564],[73.67527,32.05656],[73.67599,32.05721],[73.67661,32.05795],[73.67681,32.05803],[73.68414,32.06579],[73.68491,32.0664],[73.6849,32.06647],[73.68565,32.06741],[73.68576,32.06728],[73.68775,32.06927],[73.68785,32.06918],[73.68938,32.07107],[73.68926,32.07105],[73.68954,32.07149],[73.68978,32.07142],[73.69388,32.07765],[73.69375,32.07772],[73.69416,32.07837],[73.69712,32.08275],[73.69759,32.08341],[73.69767,32.08339],[73.69787,32.08384],[73.69802,32.08376],[73.69769,32.0833]]],[[[73.69024,32.0715],[73.69016,32.07154],[73.69024,32.07151],[73.69027,32.07149],[73.69024,32.0715]]]]}},{"type":"Feature","properties":{"lu":"State Land","ct":"Existing","a":7.168},"geometry":{"type":"MultiPolygon","coordinates":[[[[73.50062,31.85986],[73.501,31.85974],[73.50092,31.85951],[73.497,31.85493],[73.49714,31.85513],[73.4967,31.85527],[73.49777,31.85654],[73.49771,31.85658],[73.49804,31.85697],[73.49914,31.85825],[73.49925,31.85819],[73.50062,31.85986]]]]}},{"type":"Feature","properties":{"lu":"State Land","ct":"Existing","a":10.151},"geometry":{"type":"MultiPolygon","coordinates":[[[[73.50769,31.86742],[73.50757,31.86746],[73.50552,31.86505],[73.50592,31.86484],[73.50379,31.86221],[73.50287,31.86125],[73.50248,31.86158],[73.50539,31.86514],[73.50527,31.86518],[73.50538,31.8653],[73.50524,31.86534],[73.50717,31.86763],[73.50769,31.86742]],[[73.50344,31.86254],[73.50338,31.86258],[73.50319,31.86235],[73.50324,31.86223],[73.50351,31.8625],[73.50344,31.86254]]]]}},{"type":"Feature","properties":{"lu":"State Land","ct":"Existing","a":24.729},"geometry":{"type":"MultiPolygon","coordinates":[[[[73.60195,31.97741],[73.60185,31.97732],[73.60197,31.97721],[73.60174,31.97696],[73.602,31.97681],[73.60115,31.97591],[73.60093,31.97578],[73.60099,31.97573],[73.60056,31.97528],[73.60004,31.97483],[73.59963,31.97502],[73.59836,31.97374],[73.59845,31.97368],[73.59914,31.97441],[73.59926,31.97433],[73.59978,31.97488],[73.60004,31.97475],[73.59938,31.97405],[73.59932,31.97406],[73.5974,31.97185],[73.59746,31.97182],[73.59731,31.97182],[73.59602,31.97242],[73.59751,31.97409],[73.59932,31.9759],[73.5992,31.97595],[73.59944,31.9762],[73.59954,31.97615],[73.60085,31.97752],[73.60102,31.97756],[73.6014,31.97742],[73.60171,31.97761],[73.60195,31.97741]]]]}},{"type":"Feature","properties":{"lu":"State Land","ct":"Existing","a":1.577},"geometry":{"type":"MultiPolygon","coordinates":[[[[73.60398,31.97963],[73.60201,31.97751],[73.60176,31.97767],[73.60187,31.97778],[73.60196,31.97773],[73.60375,31.97969],[73.60398,31.97963]]]]}},{"type":"Feature","properties":{"lu":"Oil Depot Buffer Zone","ct":"Proposed","a":32.593},"geometry":{"type":"MultiPolygon","coordinates":[[[[73.70782,32.07928],[73.70704,32.07935],[73.70714,32.07903],[73.70791,32.07897],[73.7084,32.07727],[73.70753,32.07665],[73.70637,32.07675],[73.70639,32.07696],[73.70362,32.07726],[73.70313,32.07774],[73.70271,32.0783],[73.70302,32.07856],[73.70508,32.07836],[73.70519,32.07897],[73.7045,32.07903],[73.70449,32.07949],[73.7066,32.08066],[73.70732,32.08018],[73.70765,32.07984],[73.70782,32.07928]]]]}},{"type":"Feature","properties":{"lu":"Oil Depot Buffer Zone","ct":"Proposed","a":77.025},"geometry":{"type":"MultiPolygon","coordinates":[[[[73.71742,32.07816],[73.71719,32.07792],[73.71579,32.07806],[73.71567,32.07701],[73.71518,32.07702],[73.71517,32.07682],[73.71281,32.07706],[73.71273,32.07648],[73.71064,32.07667],[73.71057,32.07618],[73.70963,32.07611],[73.70876,32.07618],[73.70845,32.07724],[73.70876,32.07757],[73.71022,32.07871],[73.7126,32.08043],[73.71306,32.08068],[73.71327,32.08067],[73.71501,32.08121],[73.71555,32.08128],[73.71699,32.08132],[73.71819,32.08112],[73.71827,32.08097],[73.718,32.07903],[73.717,32.07911],[73.71688,32.07823],[73.71742,32.07816]]]]}},{"type":"Feature","properties":{"lu":"Oil Depot Buffer Zone","ct":"Proposed","a":25.486},"geometry":{"type":"MultiPolygon","coordinates":[[[[73.71855,32.08101],[73.71843,32.08001],[73.71807,32.07907],[73.71832,32.08096],[73.71823,32.08114],[73.71697,32.08137],[73.71555,32.08132],[73.71445,32.08113],[73.71312,32.08073],[73.71344,32.08125],[73.71358,32.0823],[73.71411,32.08323],[73.71444,32.08345],[73.71612,32.08418],[73.7172,32.08287],[73.71819,32.0813],[73.71841,32.08105],[73.71855,32.08101]]]]}},{"type":"Feature","properties":{"lu":"Oil Depot Buffer Zone","ct":"Proposed","a":4.35},"geometry":{"type":"MultiPolygon","coordinates":[[[[73.71782,32.0822],[73.71689,32.08351],[73.71831,32.08397],[73.71846,32.08221],[73.71782,32.0822]]]]}},{"type":"Feature","properties":{"lu":"Oil Depot Buffer Zone","ct":"Proposed","a":0.644},"geometry":{"type":"MultiPolygon","coordinates":[[[[73.71854,32.08119],[73.71793,32.08204],[73.71847,32.08204],[73.71854,32.08119]]]]}},{"type":"Feature","properties":{"lu":"Oil Depot Buffer Zone","ct":"Proposed","a":62.729},"geometry":{"type":"MultiPolygon","coordinates":[[[[73.71831,32.08397],[73.71689,32.08351],[73.71495,32.0856],[73.71522,32.08594],[73.71496,32.08622],[73.71465,32.08617],[73.71452,32.08606],[73.71421,32.08641],[73.71443,32.08652],[73.7143,32.08667],[73.71405,32.08658],[73.71071,32.09018],[73.71266,32.09033],[73.71398,32.09021],[73.71533,32.08978],[73.71649,32.08906],[73.71734,32.08816],[73.7179,32.0871],[73.71809,32.08628],[73.71831,32.08397]]]]}},{"type":"Feature","properties":{"lu":"State Land","ct":"Existing","a":4.075},"geometry":{"type":"MultiPolygon","coordinates":[[[[73.50253,31.86154],[73.501,31.85974],[73.5007,31.85983],[73.50206,31.86141],[73.50195,31.86147],[73.50252,31.8622],[73.5027,31.86231],[73.50398,31.86384],[73.50417,31.86379],[73.50533,31.86516],[73.50539,31.86514],[73.50404,31.86354],[73.50248,31.86158],[73.50253,31.86154]]]]}},{"type":"Feature","properties":{"lu":"Oil Depot Buffer Zone","ct":"Proposed","a":94.573},"geometry":{"type":"MultiPolygon","coordinates":[[[[73.7161,32.08421],[73.71439,32.08348],[73.71407,32.08326],[73.71312,32.08305],[73.71305,32.08311],[73.713,32.08356],[73.7128,32.08579],[73.7068,32.08533],[73.70681,32.08501],[73.70254,32.08473],[73.704,32.08618],[73.70484,32.08636],[73.70694,32.08822],[73.70733,32.08834],[73.70754,32.08866],[73.70839,32.08922],[73.70938,32.09008],[73.71057,32.09017],[73.7161,32.08421]]]]}},{"type":"Feature","properties":{"lu":"Oil Depot Buffer Zone","ct":"Proposed","a":3.163},"geometry":{"type":"MultiPolygon","coordinates":[[[[73.70423,32.08457],[73.70213,32.08442],[73.70254,32.08473],[73.70681,32.08501],[73.7068,32.08533],[73.70687,32.08534],[73.70691,32.08478],[73.70423,32.08457]]]]}},{"type":"Feature","properties":{"lu":"Oil Depot Buffer Zone","ct":"Proposed","a":40.811},"geometry":{"type":"MultiPolygon","coordinates":[[[[73.70176,32.0841],[73.70165,32.08408],[73.70154,32.08528],[73.70158,32.08589],[73.70172,32.08651],[73.70229,32.08766],[73.70319,32.08862],[73.70422,32.08928],[73.7054,32.0897],[73.70625,32.08984],[73.70907,32.09006],[73.70826,32.08934],[73.7074,32.08878],[73.70721,32.08847],[73.70681,32.08834],[73.70472,32.08649],[73.70387,32.0863],[73.70217,32.08463],[73.70221,32.08459],[73.70176,32.0841]]]]}}]}